format  = 'OEF1.1'       ! file format
rectype = 'ML'           ! record type (1L/ML)
refsys  = ECLM J2000     ! default reference system
END_OF_HEADER
2001AV43
! Equinoctial elements: a, e*sin(LP), e*cos(LP), tan(i/2)*sin(LN), tan(i/2)*cos(LN), mean long.
 EQU   1.27772299724384E+00  0.229239048609081  0.067004575208754  0.001269015755366  0.002076965485260  95.6321228051748
 MJD     51918.36452350 TDT
 MAG  24.429  0.150
! RMS    5.42324E-06   3.22013E-06   1.30010E-06   1.14846E-07   4.73428E-08   1.98828E-04
! EIG   6.95145E-09   1.06707E-08   8.42445E-08   1.20247E-07   3.96945E-07   7.30408E-06
! WEA  -0.74211  -0.44055  -0.17597  -0.00395  -0.00270   0.47350
 COV   2.941156758042412E-11  1.745551547661989E-11  6.934684865019309E-12
 COV   1.568071824992208E-13  1.070879821059640E-13 -1.071297312110343E-09
 COV   1.036923670452588E-11  4.115208002511780E-12  9.486395631785820E-14
 COV   6.157520563522735E-14 -6.360651584572840E-10  1.690265218202913E-12
 COV   3.511887063495960E-14  2.671811803501762E-14 -2.578505302038584E-10
 COV   1.318955961783850E-14 -3.753744386098708E-15 -5.590708273960190E-12
 COV   2.241343650410659E-15 -3.977597934480654E-12  3.953272040891421E-08
 NOR   1.321041538038522E+14 -3.852526742885149E+14 -6.750243756271023E+14
 NOR  -2.029696383778528E+14 -6.485579055687361E+14 -7.115442987412264E+12
 NOR   1.770426045033910E+15  4.574737918792357E+15  2.735252370063750E+14
 NOR   9.000411854087211E+14  4.801323937385276E+13  1.407307420715325E+16
 NOR  -2.711779855511595E+14 -7.922256002520144E+14  1.469861409457324E+14
 NOR   9.123968485145862E+14  2.535681834080773E+15 -2.483954398231820E+12
 NOR   7.758291680019531E+15 -7.122041376128403E+12  1.537360238021630E+12